{
  "type": "FeatureCollection",
  "features": [
    {
      "type": "Feature",
      "properties": {
        "name": "Municipal Corporation Ludhiana Boundary",
        "area_sq_km": 139.58
      },
      "geometry": {
        "type": "Polygon",
        "coordinates": [
          [
            [
              75.921898,
              30.928688
            ],
            [
              75.921274,
              30.928301
            ],
            [
              75.920994,
              30.928163
            ],
            [
              75.918909,
              30.927373
            ],
            [
              75.918861,
              30.927129
            ],
            [
              75.917661,
              30.926915
            ],
            [
              75.917501,
              30.926146
            ],
            [
              75.916444,
              30.922146
            ],
            [
              75.916341,
              30.921758
            ],
            [
              75.916031,
              30.920892
            ],
            [
              75.915687,
              30.919932
            ],
            [
              75.915687,
              30.919932
            ],
            [
              75.915233,
              30.918663
            ],
            [
              75.915177,
              30.917453
            ],
            [
              75.915215,
              30.914711
            ],
            [
              75.915159,
              30.914094
            ],
            [
              75.915238,
              30.913835
            ],
            [
              75.917732,
              30.911246
            ],
            [
              75.91953,
              30.909355
            ],
            [
              75.919697,
              30.909349
            ],
            [
              75.91973,
              30.909136
            ],
            [
              75.921791,
              30.909672
            ],
            [
              75.922156,
              30.908464
            ],
            [
              75.922667,
              30.906056
            ],
            [
              75.92306,
              30.904877
            ],
            [
              75.928363,
              30.905022
            ],
            [
              75.93515,
              30.903886
            ],
            [
              75.940114,
              30.90262
            ],
            [
              75.940458,
              30.899737
            ],
            [
              75.940876,
              30.89817
            ],
            [
              75.940664,
              30.898071
            ],
            [
              75.940395,
              30.89773
            ],
            [
              75.939672,
              30.897076
            ],
            [
              75.939326,
              30.896714
            ],
            [
              75.938241,
              30.89652
            ],
            [
              75.935417,
              30.896411
            ],
            [
              75.935141,
              30.8964
            ],
            [
              75.932785,
              30.89516
            ],
            [
              75.93863,
              30.89079
            ],
            [
              75.953935,
              30.890766
            ],
            [
              75.952962,
              30.884403
            ],
            [
              75.952212,
              30.880679
            ],
            [
              75.952425,
              30.88058
            ],
            [
              75.955073,
              30.879321
            ],
            [
              75.951492,
              30.873641
            ],
            [
              75.951076,
              30.873129
            ],
            [
              75.949586,
              30.871997
            ],
            [
              75.951537,
              30.870657
            ],
            [
              75.950252,
              30.86877
            ],
            [
              75.949194,
              30.867323
            ],
            [
              75.947325,
              30.864469
            ],
            [
              75.946344,
              30.863028
            ],
            [
              75.943982,
              30.861263
            ],
            [
              75.945276,
              30.859972
            ],
            [
              75.942716,
              30.857628
            ],
            [
              75.956141,
              30.850438
            ],
            [
              75.955867,
              30.850116
            ],
            [
              75.954121,
              30.848299
            ],
            [
              75.953704,
              30.847854
            ],
            [
              75.94527,
              30.852818
            ],
            [
              75.943311,
              30.850071
            ],
            [
              75.943098,
              30.849496
            ],
            [
              75.942056,
              30.848093
            ],
            [
              75.940282,
              30.846035
            ],
            [
              75.940028,
              30.845549
            ],
            [
              75.933208,
              30.848908
            ],
            [
              75.929701,
              30.850628
            ],
            [
              75.927816,
              30.851562
            ],
            [
              75.924575,
              30.847571
            ],
            [
              75.92293,
              30.848605
            ],
            [
              75.921708,
              30.84717
            ],
            [
              75.918056,
              30.846076
            ],
            [
              75.917896,
              30.846066
            ],
            [
              75.911838,
              30.846147
            ],
            [
              75.90723,
              30.841683
            ],
            [
              75.907191,
              30.84162
            ],
            [
              75.907069,
              30.84163
            ],
            [
              75.904189,
              30.841657
            ],
            [
              75.904125,
              30.841633
            ],
            [
              75.900622,
              30.839022
            ],
            [
              75.900034,
              30.838527
            ],
            [
              75.899992,
              30.838246
            ],
            [
              75.898054,
              30.836579
            ],
            [
              75.896403,
              30.835121
            ],
            [
              75.895408,
              30.834266
            ],
            [
              75.891276,
              30.83798
            ],
            [
              75.888073,
              30.840733
            ],
            [
              75.883967,
              30.844382
            ],
            [
              75.882366,
              30.845802
            ],
            [
              75.881629,
              30.846433
            ],
            [
              75.879774,
              30.848009
            ],
            [
              75.879671,
              30.848114
            ],
            [
              75.879218,
              30.84758
            ],
            [
              75.878415,
              30.847226
            ],
            [
              75.877172,
              30.846494
            ],
            [
              75.875425,
              30.84566
            ],
            [
              75.872923,
              30.844361
            ],
            [
              75.872018,
              30.843491
            ],
            [
              75.872016,
              30.84349
            ],
            [
              75.871896,
              30.843444
            ],
            [
              75.871045,
              30.845182
            ],
            [
              75.869976,
              30.84738
            ],
            [
              75.869158,
              30.848708
            ],
            [
              75.868814,
              30.849092
            ],
            [
              75.868674,
              30.849222
            ],
            [
              75.868102,
              30.849737
            ],
            [
              75.862751,
              30.854556
            ],
            [
              75.855852,
              30.860452
            ],
            [
              75.855202,
              30.861012
            ],
            [
              75.853825,
              30.862321
            ],
            [
              75.852901,
              30.863058
            ],
            [
              75.852313,
              30.863584
            ],
            [
              75.848901,
              30.866521
            ],
            [
              75.846218,
              30.868886
            ],
            [
              75.844526,
              30.870471
            ],
            [
              75.84449,
              30.870387
            ],
            [
              75.844451,
              30.870293
            ],
            [
              75.843703,
              30.868043
            ],
            [
              75.841258,
              30.861275
            ],
            [
              75.841137,
              30.861059
            ],
            [
              75.838631,
              30.862148
            ],
            [
              75.833957,
              30.864229
            ],
            [
              75.83127,
              30.865457
            ],
            [
              75.828602,
              30.86662
            ],
            [
              75.824633,
              30.868078
            ],
            [
              75.821014,
              30.869445
            ],
            [
              75.820129,
              30.869629
            ],
            [
              75.815055,
              30.87071
            ],
            [
              75.813052,
              30.871189
            ],
            [
              75.812936,
              30.8711
            ],
            [
              75.812711,
              30.870869
            ],
            [
              75.81115,
              30.869625
            ],
            [
              75.810203,
              30.868954
            ],
            [
              75.810096,
              30.869049
            ],
            [
              75.809304,
              30.869862
            ],
            [
              75.808932,
              30.870248
            ],
            [
              75.80815,
              30.871203
            ],
            [
              75.805794,
              30.873245
            ],
            [
              75.800477,
              30.874025
            ],
            [
              75.799508,
              30.873906
            ],
            [
              75.798441,
              30.873793
            ],
            [
              75.796595,
              30.873871
            ],
            [
              75.793845,
              30.873754
            ],
            [
              75.790323,
              30.876864
            ],
            [
              75.787114,
              30.883133
            ],
            [
              75.786351,
              30.885418
            ],
            [
              75.786241,
              30.88557
            ],
            [
              75.783065,
              30.884574
            ],
            [
              75.774929,
              30.882484
            ],
            [
              75.769527,
              30.881847
            ],
            [
              75.766665,
              30.890639
            ],
            [
              75.766082,
              30.894209
            ],
            [
              75.765921,
              30.895408
            ],
            [
              75.765628,
              30.897113
            ],
            [
              75.764957,
              30.901774
            ],
            [
              75.765229,
              30.903493
            ],
            [
              75.765749,
              30.906036
            ],
            [
              75.766146,
              30.907325
            ],
            [
              75.766653,
              30.907366
            ],
            [
              75.767275,
              30.907499
            ],
            [
              75.784502,
              30.900897
            ],
            [
              75.784581,
              30.900853
            ],
            [
              75.784527,
              30.907787
            ],
            [
              75.784486,
              30.911417
            ],
            [
              75.784539,
              30.914691
            ],
            [
              75.784744,
              30.914701
            ],
            [
              75.789083,
              30.919123
            ],
            [
              75.789088,
              30.919122
            ],
            [
              75.795442,
              30.924886
            ],
            [
              75.796387,
              30.924634
            ],
            [
              75.797393,
              30.9232
            ],
            [
              75.798942,
              30.924163
            ],
            [
              75.799716,
              30.924157
            ],
            [
              75.799813,
              30.924141
            ],
            [
              75.799094,
              30.92493
            ],
            [
              75.79926,
              30.924931
            ],
            [
              75.800385,
              30.925917
            ],
            [
              75.799086,
              30.92682
            ],
            [
              75.799074,
              30.927125
            ],
            [
              75.799335,
              30.927084
            ],
            [
              75.799368,
              30.927079
            ],
            [
              75.7994,
              30.927082
            ],
            [
              75.799401,
              30.927207
            ],
            [
              75.799402,
              30.927232
            ],
            [
              75.800242,
              30.927319
            ],
            [
              75.801427,
              30.92802
            ],
            [
              75.801701,
              30.928393
            ],
            [
              75.802276,
              30.929639
            ],
            [
              75.802284,
              30.929897
            ],
            [
              75.802344,
              30.930345
            ],
            [
              75.802671,
              30.930783
            ],
            [
              75.803129,
              30.93116
            ],
            [
              75.80342,
              30.931308
            ],
            [
              75.803866,
              30.931476
            ],
            [
              75.804011,
              30.931506
            ],
            [
              75.804743,
              30.931296
            ],
            [
              75.808711,
              30.932258
            ],
            [
              75.811534,
              30.935272
            ],
            [
              75.812441,
              30.936227
            ],
            [
              75.81443,
              30.93828
            ],
            [
              75.816178,
              30.940183
            ],
            [
              75.816558,
              30.940596
            ],
            [
              75.816813,
              30.940887
            ],
            [
              75.81736,
              30.941511
            ],
            [
              75.81745,
              30.942463
            ],
            [
              75.817885,
              30.942261
            ],
            [
              75.817954,
              30.942266
            ],
            [
              75.819945,
              30.944213
            ],
            [
              75.820097,
              30.944397
            ],
            [
              75.820147,
              30.944467
            ],
            [
              75.817556,
              30.946725
            ],
            [
              75.816069,
              30.948115
            ],
            [
              75.817586,
              30.950068
            ],
            [
              75.818613,
              30.951474
            ],
            [
              75.819593,
              30.950769
            ],
            [
              75.820837,
              30.951996
            ],
            [
              75.822547,
              30.952045
            ],
            [
              75.826142,
              30.952147
            ],
            [
              75.830284,
              30.952173
            ],
            [
              75.834907,
              30.952173
            ],
            [
              75.835828,
              30.953355
            ],
            [
              75.837536,
              30.955587
            ],
            [
              75.839931,
              30.95465
            ],
            [
              75.841883,
              30.9543
            ],
            [
              75.844724,
              30.953875
            ],
            [
              75.845478,
              30.954078
            ],
            [
              75.846431,
              30.953807
            ],
            [
              75.847563,
              30.953498
            ],
            [
              75.84872,
              30.953262
            ],
            [
              75.849512,
              30.953253
            ],
            [
              75.850189,
              30.953248
            ],
            [
              75.851402,
              30.953222
            ],
            [
              75.852691,
              30.953166
            ],
            [
              75.853921,
              30.95311
            ],
            [
              75.857894,
              30.952969
            ],
            [
              75.857013,
              30.950081
            ],
            [
              75.857648,
              30.949997
            ],
            [
              75.857454,
              30.949527
            ],
            [
              75.85748,
              30.948544
            ],
            [
              75.85757,
              30.948224
            ],
            [
              75.857603,
              30.948153
            ],
            [
              75.857653,
              30.948121
            ],
            [
              75.862733,
              30.948142
            ],
            [
              75.868069,
              30.948264
            ],
            [
              75.871997,
              30.948383
            ],
            [
              75.87523,
              30.948327
            ],
            [
              75.877077,
              30.950612
            ],
            [
              75.878545,
              30.950189
            ],
            [
              75.87898,
              30.950034
            ],
            [
              75.879563,
              30.950013
            ],
            [
              75.880216,
              30.950207
            ],
            [
              75.880751,
              30.950125
            ],
            [
              75.882486,
              30.949809
            ],
            [
              75.883825,
              30.949462
            ],
            [
              75.884263,
              30.949325
            ],
            [
              75.891822,
              30.947235
            ],
            [
              75.892937,
              30.946663
            ],
            [
              75.891102,
              30.944143
            ],
            [
              75.889834,
              30.941531
            ],
            [
              75.889519,
              30.940971
            ],
            [
              75.889672,
              30.93807
            ],
            [
              75.890581,
              30.937618
            ],
            [
              75.891811,
              30.937036
            ],
            [
              75.892478,
              30.936656
            ],
            [
              75.893238,
              30.935662
            ],
            [
              75.894447,
              30.934439
            ],
            [
              75.894543,
              30.934338
            ],
            [
              75.895024,
              30.933999
            ],
            [
              75.896605,
              30.932844
            ],
            [
              75.896842,
              30.932672
            ],
            [
              75.897221,
              30.932574
            ],
            [
              75.898088,
              30.932329
            ],
            [
              75.898177,
              30.932305
            ],
            [
              75.898851,
              30.932241
            ],
            [
              75.899512,
              30.931866
            ],
            [
              75.899562,
              30.931771
            ],
            [
              75.899732,
              30.931358
            ],
            [
              75.900089,
              30.930964
            ],
            [
              75.900302,
              30.930857
            ],
            [
              75.901627,
              30.930115
            ],
            [
              75.901628,
              30.930028
            ],
            [
              75.902233,
              30.929816
            ],
            [
              75.903,
              30.929645
            ],
            [
              75.903975,
              30.929545
            ],
            [
              75.904541,
              30.929695
            ],
            [
              75.904625,
              30.929757
            ],
            [
              75.904759,
              30.93129
            ],
            [
              75.904958,
              30.931755
            ],
            [
              75.905224,
              30.931828
            ],
            [
              75.906866,
              30.933226
            ],
            [
              75.907028,
              30.933364
            ],
            [
              75.907931,
              30.934143
            ],
            [
              75.908666,
              30.934301
            ],
            [
              75.910328,
              30.934636
            ],
            [
              75.910724,
              30.934869
            ],
            [
              75.912611,
              30.934952
            ],
            [
              75.912597,
              30.935013
            ],
            [
              75.912617,
              30.937126
            ],
            [
              75.915298,
              30.935862
            ],
            [
              75.917774,
              30.93465
            ],
            [
              75.919845,
              30.933827
            ],
            [
              75.920007,
              30.933772
            ],
            [
              75.921823,
              30.933161
            ],
            [
              75.92262,
              30.929944
            ],
            [
              75.9221,
              30.929708
            ],
            [
              75.922314,
              30.929031
            ],
            [
              75.921898,
              30.928688
            ]
          ]
        ]
      }
    }
  ]
}